0 FENGYUN 1C DEB
1 37079U 99025EFP 13284.18834234  .00002243  00000-0  12140-2 0  1298
2 37079 099.0081 286.0727 0027356 011.6096 348.5922 14.13391089242429
0 FENGYUN 1C DEB
1 37079U 99025EFP 13286.80759023  .00002340  00000-0  12659-2 0  1306
2 37079 099.0052 288.7022 0024264 008.5925 351.6299 14.13405397242795
0 FENGYUN 1C DEB
1 37079U 99025EFP 13290.20548557  .00002530  00000-0  13647-2 0  1313
2 37079 098.9989 292.1093 0028351 350.3608 009.7766 14.13426674243271
0 FENGYUN 1C DEB
1 37079U 99025EFP 13291.83361591  .00002714  00000-0  14622-2 0  1323
2 37079 099.0056 293.7693 0027022 346.7921 013.3227 14.13438867243508
0 FENGYUN 1C DEB
1 37079U 99025EFP 13293.24936892  .00002899  00000-0  15604-2 0  1338
2 37079 099.0037 295.1938 0026726 341.9272 018.1404 14.13450100243707
0 FENGYUN 1C DEB
1 37079U 99025EFP 13295.23141491  .00003023  00000-0  16256-2 0  1347
2 37079 099.0055 297.1853 0026877 336.3289 023.6994 14.13464271243987
